start=new Date('2022-05-05T00:00:00.000Z').valueOf();
sats=[{"OBJECT_NAME":"STARLINK-1444","BSTAR":"0.00061804000000","SEMIMAJOR_AXIS":"6925.293","TLE_LINE2":"2 45661  53.0543 253.0562 0001476  66.6449 293.4695 15.06418164106999","APOAPSIS":"548.180","CLASSIFICATION_TYPE":"U","ECCENTRICITY":"0.00014760","RA_OF_ASC_NODE":"253.0562","ELEMENT_SET_NO":"999","EPHEMERIS_TYPE":"0","OBJECT_TYPE":"PAYLOAD","TIME_SYSTEM":"UTC","REV_AT_EPOCH":"10699","MEAN_ELEMENT_THEORY":"SGP4","CENTER_NAME":"EARTH","TLE_LINE1":"1 45661U 20035E   22124.87922968  .00008941  00000-0  61804-3 0  9998","EPOCH":"2022-05-04T21:06:05.444352","INCLINATION":"53.0543","NORAD_CAT_ID":"45661","OBJECT_ID":"2020-035E","MEAN_MOTION":"15.06418164","LAUNCH_DATE":"2020-06-04","MEAN_MOTION_DOT":"0.00008941","MEAN_MOTION_DDOT":"0.0000000000000","MEAN_ANOMALY":"293.4695","PERIAPSIS":"546.136","RCS_SIZE":"LARGE","SITE":"AFETR","COUNTRY_CODE":"US","FILE":"3429148","PERIOD":"95.591","REF_FRAME":"TEME","ARG_OF_PERICENTER":"66.6449","GP_ID":"202714156","DECAY_DATE":null},{"MEAN_MOTION":"15.06403379","MEAN_MOTION_DDOT":"0.0000000000000","MEAN_MOTION_DOT":"0.00001464","MEAN_ANOMALY":"296.9232","LAUNCH_DATE":"2020-06-04","SITE":"AFETR","RCS_SIZE":"LARGE","PERIAPSIS":"545.992","COUNTRY_CODE":"US","GP_ID":"202713411","ARG_OF_PERICENTER":"63.1936","PERIOD":"95.592","REF_FRAME":"TEME","DECAY_DATE":null,"FILE":"3429148","CLASSIFICATION_TYPE":"U","ECCENTRICITY":"0.00017490","SEMIMAJOR_AXIS":"6925.338","BSTAR":"0.00011715000000","OBJECT_NAME":"STARLINK-1445","APOAPSIS":"548.414","TLE_LINE2":"2 45662  53.0541 253.2762 0001749  63.1936 296.9232 15.06403379106984","ELEMENT_SET_NO":"999","RA_OF_ASC_NODE":"253.2762","OBJECT_TYPE":"PAYLOAD","REV_AT_EPOCH":"10698","MEAN_ELEMENT_THEORY":"SGP4","TIME_SYSTEM":"UTC","EPHEMERIS_TYPE":"0","NORAD_CAT_ID":"45662","OBJECT_ID":"2020-035F","TLE_LINE1":"1 45662U 20035F   22124.82761125  .00001464  00000-0  11715-3 0  9999","EPOCH":"2022-05-04T19:51:45.612000","CENTER_NAME":"EARTH","INCLINATION":"53.0541"},{"MEAN_MOTION":"15.06399643","LAUNCH_DATE":"2020-06-04","MEAN_ANOMALY":"293.3237","MEAN_MOTION_DDOT":"0.0000000000000","MEAN_MOTION_DOT":"0.00001502","RCS_SIZE":"LARGE","SITE":"AFETR","PERIAPSIS":"546.213","COUNTRY_CODE":"US","PERIOD":"95.592","REF_FRAME":"TEME","ARG_OF_PERICENTER":"66.7904","GP_ID":"202713661","DECAY_DATE":null,"FILE":"3429148","CLASSIFICATION_TYPE":"U","ECCENTRICITY":"0.00014460","OBJECT_NAME":"STARLINK-1446","BSTAR":"0.00011971000000","SEMIMAJOR_AXIS":"6925.350","TLE_LINE2":"2 45663  53.0540 253.2666 0001446  66.7904 293.3237 15.06399643106989","APOAPSIS":"548.216","ELEMENT_SET_NO":"999","RA_OF_ASC_NODE":"253.2666","OBJECT_TYPE":"PAYLOAD","TIME_SYSTEM":"UTC","MEAN_ELEMENT_THEORY":"SGP4","REV_AT_EPOCH":"10698","EPHEMERIS_TYPE":"0","NORAD_CAT_ID":"45663","OBJECT_ID":"2020-035G","CENTER_NAME":"EARTH","TLE_LINE1":"1 45663U 20035G   22124.83130329  .00001502  00000-0  11971-3 0  9994","EPOCH":"2022-05-04T19:57:04.604256","INCLINATION":"53.0540"},{"MEAN_MOTION":"15.06398258","MEAN_MOTION_DDOT":"0.0000000000000","MEAN_MOTION_DOT":"0.00003036","MEAN_ANOMALY":"295.6437","LAUNCH_DATE":"2020-06-04","PERIAPSIS":"546.261","SITE":"AFETR","RCS_SIZE":"LARGE","COUNTRY_CODE":"US","FILE":"3429148","GP_ID":"202713909","ARG_OF_PERICENTER":"64.4695","PERIOD":"95.592","REF_FRAME":"TEME","DECAY_DATE":null,"SEMIMAJOR_AXIS":"6925.354","OBJECT_NAME":"STARLINK-1448","BSTAR":"0.00022263000000","APOAPSIS":"548.177","TLE_LINE2":"2 45665  53.0541 253.7049 0001383  64.4695 295.6437 15.06398258106960","CLASSIFICATION_TYPE":"U","ECCENTRICITY":"0.00013830","RA_OF_ASC_NODE":"253.7049","ELEMENT_SET_NO":"999","EPHEMERIS_TYPE":"0","OBJECT_TYPE":"PAYLOAD","REV_AT_EPOCH":"10696","MEAN_ELEMENT_THEORY":"SGP4","TIME_SYSTEM":"UTC","EPOCH":"2022-05-04T17:33:46.545408","TLE_LINE1":"1 45665U 20035J   22124.73178872  .00003036  00000-0  22263-3 0  9990","CENTER_NAME":"EARTH","INCLINATION":"53.0541","NORAD_CAT_ID":"45665","OBJECT_ID":"2020-035J"},{"FILE":"3429148","DECAY_DATE":null,"ARG_OF_PERICENTER":"58.3100","GP_ID":"202714657","PERIOD":"95.591","REF_FRAME":"TEME","COUNTRY_CODE":"US","PERIAPSIS":"546.030","SITE":"AFETR","RCS_SIZE":"LARGE","MEAN_MOTION_DDOT":"0.0000000000000","MEAN_MOTION_DOT":"0.00004344","MEAN_ANOMALY":"301.8050","LAUNCH_DATE":"2020-06-04","MEAN_MOTION":"15.06411648","INCLINATION":"53.0550","TLE_LINE1":"1 45666U 20035K   22124.87090321  .00004344  00000-0  31027-3 0  9999","EPOCH":"2022-05-04T20:54:06.037344","CENTER_NAME":"EARTH","OBJECT_ID":"2020-035K","NORAD_CAT_ID":"45666","EPHEMERIS_TYPE":"0","REV_AT_EPOCH":"10698","MEAN_ELEMENT_THEORY":"SGP4","TIME_SYSTEM":"UTC","OBJECT_TYPE":"PAYLOAD","RA_OF_ASC_NODE":"253.1043","ELEMENT_SET_NO":"999","APOAPSIS":"548.325","TLE_LINE2":"2 45666  53.0550 253.1043 0001657  58.3100 301.8050 15.06411648106988","SEMIMAJOR_AXIS":"6925.313","OBJECT_NAME":"STARLINK-1449","BSTAR":"0.00031027000000","ECCENTRICITY":"0.00016570","CLASSIFICATION_TYPE":"U"},{"PERIAPSIS":"546.224","RCS_SIZE":"LARGE","SITE":"AFETR","LAUNCH_DATE":"2020-06-04","MEAN_MOTION_DDOT":"0.0000000000000","MEAN_ANOMALY":"275.9755","MEAN_MOTION_DOT":"0.00003409","MEAN_MOTION":"15.06408206","FILE":"3428986","DECAY_DATE":null,"PERIOD":"95.592","REF_FRAME":"TEME","GP_ID":"202690805","ARG_OF_PERICENTER":"84.1393","COUNTRY_CODE":"US","RA_OF_ASC_NODE":"253.6944","ELEMENT_SET_NO":"999","TLE_LINE2":"2 45667  53.0556 253.6944 0001392  84.1393 275.9755 15.06408206106616","APOAPSIS":"548.152","OBJECT_NAME":"STARLINK-1450","BSTAR":"0.00024759000000","SEMIMAJOR_AXIS":"6925.323","ECCENTRICITY":"0.00013920","CLASSIFICATION_TYPE":"U","INCLINATION":"53.0556","CENTER_NAME":"EARTH","TLE_LINE1":"1 45667U 20035L   22124.73547391  .00003409  00000-0  24759-3 0  9994","EPOCH":"2022-05-04T17:39:04.945824","OBJECT_ID":"2020-035L","NORAD_CAT_ID":"45667","EPHEMERIS_TYPE":"0","TIME_SYSTEM":"UTC","REV_AT_EPOCH":"10661","MEAN_ELEMENT_THEORY":"SGP4","OBJECT_TYPE":"PAYLOAD"},{"OBJECT_TYPE":"PAYLOAD","TIME_SYSTEM":"UTC","REV_AT_EPOCH":"10698","MEAN_ELEMENT_THEORY":"SGP4","EPHEMERIS_TYPE":"0","NORAD_CAT_ID":"45668","OBJECT_ID":"2020-035M","CENTER_NAME":"EARTH","EPOCH":"2022-05-04T18:30:48.320640","TLE_LINE1":"1 45668U 20035M   22124.77139260  .00001184  00000-0  98424-4 0  9990","INCLINATION":"53.0575","CLASSIFICATION_TYPE":"U","ECCENTRICITY":"0.00015830","OBJECT_NAME":"STARLINK-1451","BSTAR":"0.00009842400000","SEMIMAJOR_AXIS":"6925.375","TLE_LINE2":"2 45668  53.0575 253.5438 0001583  51.6370 308.4761 15.06391391106986","APOAPSIS":"548.336","ELEMENT_SET_NO":"999","RA_OF_ASC_NODE":"253.5438","COUNTRY_CODE":"US","PERIOD":"95.593","REF_FRAME":"TEME","ARG_OF_PERICENTER":"51.6370","GP_ID":"202713161","DECAY_DATE":null,"FILE":"3429148","MEAN_MOTION":"15.06391391","LAUNCH_DATE":"2020-06-04","MEAN_MOTION_DDOT":"0.0000000000000","MEAN_ANOMALY":"308.4761","MEAN_MOTION_DOT":"0.00001184","RCS_SIZE":"LARGE","SITE":"AFETR","PERIAPSIS":"546.144"},{"RA_OF_ASC_NODE":"253.6165","ELEMENT_SET_NO":"999","APOAPSIS":"548.450","TLE_LINE2":"2 45669  53.0552 253.6165 0001793  58.7946 301.3218 15.06401644106555","SEMIMAJOR_AXIS":"6925.344","OBJECT_NAME":"STARLINK-1452","BSTAR":"-0.00001438500000","ECCENTRICITY":"0.00017930","CLASSIFICATION_TYPE":"U","INCLINATION":"53.0552","EPOCH":"2022-05-04T18:05:37.106016","TLE_LINE1":"1 45669U 20035N   22124.75390169 -.00000496  00000-0 -14385-4 0  9997","CENTER_NAME":"EARTH","OBJECT_ID":"2020-035N","NORAD_CAT_ID":"45669","EPHEMERIS_TYPE":"0","REV_AT_EPOCH":"10655","MEAN_ELEMENT_THEORY":"SGP4","TIME_SYSTEM":"UTC","OBJECT_TYPE":"PAYLOAD","PERIAPSIS":"545.967","SITE":"AFETR","RCS_SIZE":"LARGE","MEAN_MOTION_DDOT":"0.0000000000000","MEAN_ANOMALY":"301.3218","MEAN_MOTION_DOT":"-0.00000496","LAUNCH_DATE":"2020-06-04","MEAN_MOTION":"15.06401644","FILE":"3428986","DECAY_DATE":null,"GP_ID":"202690299","ARG_OF_PERICENTER":"58.7946","PERIOD":"95.592","REF_FRAME":"TEME","COUNTRY_CODE":"US"},{"LAUNCH_DATE":"2020-06-04","MEAN_MOTION_DDOT":"0.0000000000000","MEAN_MOTION_DOT":"0.00001963","MEAN_ANOMALY":"309.9845","MEAN_MOTION":"15.06401851","PERIAPSIS":"546.007","RCS_SIZE":"LARGE","SITE":"AFETR","COUNTRY_CODE":"US","FILE":"3428483","DECAY_DATE":null,"REF_FRAME":"TEME","PERIOD":"95.592","GP_ID":"202655270","ARG_OF_PERICENTER":"50.1297","TLE_LINE2":"2 45670  53.0571 224.5617 0001734  50.1297 309.9845 15.06401851106951","APOAPSIS":"548.409","BSTAR":"0.00015063000000","OBJECT_NAME":"STARLINK-1453","SEMIMAJOR_AXIS":"6925.343","ECCENTRICITY":"0.00017340","CLASSIFICATION_TYPE":"U","RA_OF_ASC_NODE":"224.5617","ELEMENT_SET_NO":"999","EPHEMERIS_TYPE":"0","TIME_SYSTEM":"UTC","REV_AT_EPOCH":"10695","MEAN_ELEMENT_THEORY":"SGP4","OBJECT_TYPE":"PAYLOAD","INCLINATION":"53.0571","CENTER_NAME":"EARTH","EPOCH":"2022-05-04T13:07:03.285984","TLE_LINE1":"1 45670U 20035P   22124.54656581  .00001963  00000-0  15063-3 0  9990","OBJECT_ID":"2020-035P","NORAD_CAT_ID":"45670"},{"MEAN_ELEMENT_THEORY":"SGP4","REV_AT_EPOCH":"10697","TIME_SYSTEM":"UTC","OBJECT_TYPE":"PAYLOAD","EPHEMERIS_TYPE":"0","OBJECT_ID":"2020-035Q","NORAD_CAT_ID":"45671","INCLINATION":"53.0541","EPOCH":"2022-05-04T19:46:27.179616","TLE_LINE1":"1 45671U 20035Q   22124.82392569  .00005560  00000-0  39175-3 0  9992","CENTER_NAME":"EARTH","ECCENTRICITY":"0.00016180","CLASSIFICATION_TYPE":"U","APOAPSIS":"548.298","TLE_LINE2":"2 45671  53.0541 253.3001 0001618  61.0539 299.0612 15.06411911106978","SEMIMAJOR_AXIS":"6925.312","BSTAR":"0.00039175000000","OBJECT_NAME":"STARLINK-1454","ELEMENT_SET_NO":"999","RA_OF_ASC_NODE":"253.3001","COUNTRY_CODE":"US","DECAY_DATE":null,"GP_ID":"202713412","ARG_OF_PERICENTER":"61.0539","REF_FRAME":"TEME","PERIOD":"95.591","FILE":"3429148","MEAN_MOTION_DDOT":"0.0000000000000","MEAN_ANOMALY":"299.0612","MEAN_MOTION_DOT":"0.00005560","LAUNCH_DATE":"2020-06-04","MEAN_MOTION":"15.06411911","SITE":"AFETR","RCS_SIZE":"LARGE","PERIAPSIS":"546.057"}];
